{
  "type": "FeatureCollection",
  "features": [
    {"type":"Feature","properties":{"PROVINSI":"Aceh"},"geometry":{"type":"MultiPolygon","coordinates":[[[[97.1,5.2],[97.5,5.3],[97.8,5.1],[97.9,4.8],[98.2,4.5],[98.5,4.2],[98.8,3.9],[99.1,3.5],[99.3,3.2],[99.0,3.0],[98.5,2.8],[98.0,3.0],[97.5,3.3],[97.2,3.7],[97.0,4.2],[96.8,4.6],[96.9,5.0],[97.1,5.2]]]]}}
    ,{"type":"Feature","properties":{"PROVINSI":"Sumatera Utara"},"geometry":{"type":"MultiPolygon","coordinates":[[[[98.0,4.2],[98.5,4.0],[99.0,3.7],[99.5,3.3],[100.0,2.8],[100.2,2.3],[100.0,1.8],[99.5,1.5],[99.0,1.3],[98.5,1.5],[98.0,2.0],[97.8,2.5],[97.5,3.0],[97.5,3.5],[98.0,4.0],[98.0,4.2]]]]}}
    ,{"type":"Feature","properties":{"PROVINSI":"Sumatera Barat"},"geometry":{"type":"MultiPolygon","coordinates":[[[[99.5,0.8],[100.0,0.5],[100.5,0.2],[101.0,-0.2],[101.2,-0.7],[101.0,-1.2],[100.5,-1.5],[100.0,-1.2],[99.5,-0.8],[99.2,-0.3],[99.0,0.2],[99.2,0.5],[99.5,0.8]]]]}}
    ,{"type":"Feature","properties":{"PROVINSI":"Riau"},"geometry":{"type":"MultiPolygon","coordinates":[[[[100.5,2.5],[101.0,2.2],[101.5,1.8],[102.0,1.5],[102.5,1.2],[103.0,0.8],[102.8,0.3],[102.3,0.0],[101.8,0.2],[101.3,0.5],[100.8,0.8],[100.5,1.2],[100.3,1.7],[100.3,2.2],[100.5,2.5]]]]}}
    ,{"type":"Feature","properties":{"PROVINSI":"Jambi"},"geometry":{"type":"MultiPolygon","coordinates":[[[[101.5,-0.5],[102.0,-0.8],[102.5,-1.2],[103.0,-1.5],[103.5,-1.8],[104.0,-2.0],[103.8,-2.3],[103.3,-2.5],[102.8,-2.3],[102.3,-2.0],[101.8,-1.7],[101.5,-1.3],[101.3,-0.9],[101.5,-0.5]]]]}}
    ,{"type":"Feature","properties":{"PROVINSI":"Sumatera Selatan"},"geometry":{"type":"MultiPolygon","coordinates":[[[[103.0,-2.0],[103.5,-2.3],[104.0,-2.7],[104.5,-3.0],[105.0,-3.3],[105.5,-3.7],[105.3,-4.0],[104.8,-4.2],[104.3,-4.0],[103.8,-3.7],[103.3,-3.3],[103.0,-2.8],[102.8,-2.4],[103.0,-2.0]]]]}}
    ,{"type":"Feature","properties":{"PROVINSI":"Bengkulu"},"geometry":{"type":"MultiPolygon","coordinates":[[[[101.0,-2.5],[101.5,-2.8],[102.0,-3.2],[102.5,-3.6],[103.0,-4.0],[102.8,-4.4],[102.3,-4.6],[101.8,-4.3],[101.3,-3.9],[101.0,-3.5],[100.8,-3.0],[101.0,-2.5]]]]}}
    ,{"type":"Feature","properties":{"PROVINSI":"Lampung"},"geometry":{"type":"MultiPolygon","coordinates":[[[[104.0,-4.0],[104.5,-4.3],[105.0,-4.7],[105.5,-5.0],[105.8,-5.5],[105.5,-5.8],[105.0,-5.9],[104.5,-5.7],[104.0,-5.4],[103.8,-5.0],[103.8,-4.5],[104.0,-4.0]]]]}}
    ,{"type":"Feature","properties":{"PROVINSI":"Kepulauan Bangka Belitung"},"geometry":{"type":"MultiPolygon","coordinates":[[[[105.5,-1.8],[106.0,-2.0],[106.5,-2.3],[107.0,-2.7],[107.2,-3.0],[106.8,-3.2],[106.3,-3.0],[105.8,-2.7],[105.5,-2.3],[105.3,-1.9],[105.5,-1.8]]]]}}
    ,{"type":"Feature","properties":{"PROVINSI":"Kepulauan Riau"},"geometry":{"type":"MultiPolygon","coordinates":[[[[103.5,1.0],[104.0,0.8],[104.5,0.5],[105.0,0.2],[104.8,-0.2],[104.3,-0.3],[103.8,-0.1],[103.5,0.3],[103.3,0.7],[103.5,1.0]]]]}}
    ,{"type":"Feature","properties":{"PROVINSI":"DKI Jakarta"},"geometry":{"type":"MultiPolygon","coordinates":[[[[106.7,-6.1],[106.9,-6.1],[107.0,-6.2],[106.9,-6.3],[106.7,-6.3],[106.6,-6.2],[106.7,-6.1]]]]}}
    ,{"type":"Feature","properties":{"PROVINSI":"Jawa Barat"},"geometry":{"type":"MultiPolygon","coordinates":[[[[106.4,-6.0],[107.0,-6.2],[107.5,-6.5],[108.0,-6.8],[108.5,-7.0],[108.3,-7.4],[107.8,-7.6],[107.3,-7.5],[106.8,-7.3],[106.4,-7.0],[106.2,-6.6],[106.2,-6.2],[106.4,-6.0]]]]}}
    ,{"type":"Feature","properties":{"PROVINSI":"Jawa Tengah"},"geometry":{"type":"MultiPolygon","coordinates":[[[[108.5,-6.8],[109.0,-6.8],[109.5,-7.0],[110.0,-7.0],[110.5,-7.2],[111.0,-7.5],[110.8,-7.8],[110.3,-8.0],[109.8,-7.9],[109.3,-7.7],[108.8,-7.5],[108.5,-7.2],[108.5,-6.8]]]]}}
    ,{"type":"Feature","properties":{"PROVINSI":"DI Yogyakarta"},"geometry":{"type":"MultiPolygon","coordinates":[[[[110.2,-7.6],[110.5,-7.6],[110.7,-7.8],[110.5,-8.0],[110.2,-8.0],[110.0,-7.8],[110.2,-7.6]]]]}}
    ,{"type":"Feature","properties":{"PROVINSI":"Jawa Timur"},"geometry":{"type":"MultiPolygon","coordinates":[[[[111.0,-7.2],[111.5,-7.0],[112.0,-7.0],[112.5,-7.2],[113.0,-7.5],[113.5,-7.7],[114.0,-7.8],[114.3,-8.0],[114.0,-8.3],[113.5,-8.4],[113.0,-8.2],[112.5,-8.0],[112.0,-7.8],[111.5,-7.6],[111.0,-7.5],[111.0,-7.2]]]]}}
    ,{"type":"Feature","properties":{"PROVINSI":"Banten"},"geometry":{"type":"MultiPolygon","coordinates":[[[[105.5,-6.0],[106.0,-6.0],[106.4,-6.2],[106.5,-6.5],[106.3,-6.8],[105.8,-7.0],[105.3,-6.8],[105.0,-6.5],[105.2,-6.2],[105.5,-6.0]]]]}}
    ,{"type":"Feature","properties":{"PROVINSI":"Bali"},"geometry":{"type":"MultiPolygon","coordinates":[[[[114.4,-8.1],[114.8,-8.1],[115.2,-8.2],[115.5,-8.4],[115.3,-8.7],[114.9,-8.8],[114.5,-8.6],[114.3,-8.4],[114.4,-8.1]]]]}}
    ,{"type":"Feature","properties":{"PROVINSI":"Nusa Tenggara Barat"},"geometry":{"type":"MultiPolygon","coordinates":[[[[115.8,-8.3],[116.3,-8.3],[116.8,-8.5],[117.3,-8.7],[117.5,-9.0],[117.2,-9.2],[116.7,-9.1],[116.2,-8.9],[115.8,-8.6],[115.8,-8.3]]]]}}
    ,{"type":"Feature","properties":{"PROVINSI":"Nusa Tenggara Timur"},"geometry":{"type":"MultiPolygon","coordinates":[[[[118.0,-8.3],[119.0,-8.5],[120.0,-9.0],[121.0,-9.5],[122.0,-10.0],[123.0,-10.2],[124.0,-10.0],[124.5,-9.5],[124.0,-9.0],[123.5,-8.5],[123.0,-8.3],[122.0,-8.5],[121.0,-8.8],[120.0,-9.0],[119.0,-8.8],[118.0,-8.5],[118.0,-8.3]]]]}}
    ,{"type":"Feature","properties":{"PROVINSI":"Kalimantan Barat"},"geometry":{"type":"MultiPolygon","coordinates":[[[[108.8,1.5],[109.5,1.8],[110.0,1.5],[110.5,1.0],[111.0,0.5],[111.5,0.0],[111.8,-0.5],[111.5,-1.0],[111.0,-1.5],[110.5,-2.0],[110.0,-2.5],[109.5,-3.0],[109.0,-2.5],[108.8,-2.0],[108.5,-1.5],[108.5,-1.0],[108.5,-0.5],[108.5,0.0],[108.5,0.5],[108.5,1.0],[108.8,1.5]]]]}}
    ,{"type":"Feature","properties":{"PROVINSI":"Kalimantan Tengah"},"geometry":{"type":"MultiPolygon","coordinates":[[[[110.5,-1.0],[111.0,-1.0],[111.5,-1.2],[112.0,-1.5],[112.5,-1.8],[113.0,-2.0],[113.5,-2.3],[114.0,-2.5],[114.5,-2.8],[115.0,-3.0],[114.8,-3.5],[114.3,-3.7],[113.8,-3.5],[113.3,-3.3],[112.8,-3.0],[112.3,-2.8],[111.8,-2.5],[111.3,-2.2],[110.8,-2.0],[110.5,-1.5],[110.5,-1.0]]]]}}
    ,{"type":"Feature","properties":{"PROVINSI":"Kalimantan Selatan"},"geometry":{"type":"MultiPolygon","coordinates":[[[[114.5,-2.5],[115.0,-2.5],[115.5,-2.8],[116.0,-3.0],[116.3,-3.5],[116.0,-4.0],[115.5,-4.2],[115.0,-4.0],[114.5,-3.7],[114.3,-3.3],[114.5,-2.8],[114.5,-2.5]]]]}}
    ,{"type":"Feature","properties":{"PROVINSI":"Kalimantan Timur"},"geometry":{"type":"MultiPolygon","coordinates":[[[[115.5,2.0],[116.0,2.5],[116.5,2.8],[117.0,3.0],[117.5,2.5],[118.0,2.0],[118.5,1.5],[118.0,1.0],[117.5,0.5],[117.0,0.0],[116.5,-0.5],[116.0,-1.0],[115.5,-0.5],[115.3,0.0],[115.2,0.5],[115.2,1.0],[115.3,1.5],[115.5,2.0]]]]}}
    ,{"type":"Feature","properties":{"PROVINSI":"Kalimantan Utara"},"geometry":{"type":"MultiPolygon","coordinates":[[[[116.0,3.5],[116.5,4.0],[117.0,4.2],[117.5,4.0],[118.0,3.5],[117.5,3.0],[117.0,2.8],[116.5,3.0],[116.0,3.2],[116.0,3.5]]]]}}
    ,{"type":"Feature","properties":{"PROVINSI":"Sulawesi Utara"},"geometry":{"type":"MultiPolygon","coordinates":[[[[123.5,1.5],[124.0,1.8],[124.5,1.5],[125.0,1.2],[125.3,0.8],[125.0,0.5],[124.5,0.5],[124.0,0.7],[123.5,1.0],[123.5,1.5]]]]}}
    ,{"type":"Feature","properties":{"PROVINSI":"Sulawesi Tengah"},"geometry":{"type":"MultiPolygon","coordinates":[[[[119.5,0.5],[120.0,0.8],[120.5,1.0],[121.0,0.8],[121.5,0.5],[122.0,0.0],[122.5,-0.5],[123.0,-1.0],[122.5,-1.5],[122.0,-2.0],[121.5,-2.2],[121.0,-2.0],[120.5,-1.5],[120.0,-1.0],[119.8,-0.5],[119.5,0.0],[119.5,0.5]]]]}}
    ,{"type":"Feature","properties":{"PROVINSI":"Sulawesi Selatan"},"geometry":{"type":"MultiPolygon","coordinates":[[[[119.5,-3.0],[120.0,-3.2],[120.5,-3.5],[120.8,-4.0],[120.5,-4.5],[120.0,-5.0],[119.5,-5.5],[119.0,-5.2],[119.2,-4.7],[119.3,-4.2],[119.3,-3.7],[119.5,-3.2],[119.5,-3.0]]]]}}
    ,{"type":"Feature","properties":{"PROVINSI":"Sulawesi Tenggara"},"geometry":{"type":"MultiPolygon","coordinates":[[[[121.0,-3.0],[121.5,-3.2],[122.0,-3.5],[122.5,-4.0],[123.0,-4.5],[123.5,-5.0],[123.2,-5.5],[122.7,-5.3],[122.2,-5.0],[121.7,-4.7],[121.2,-4.3],[121.0,-3.8],[120.8,-3.4],[121.0,-3.0]]]]}}
    ,{"type":"Feature","properties":{"PROVINSI":"Gorontalo"},"geometry":{"type":"MultiPolygon","coordinates":[[[[122.0,0.8],[122.5,1.0],[123.0,0.8],[123.3,0.5],[123.0,0.2],[122.5,0.2],[122.0,0.4],[122.0,0.8]]]]}}
    ,{"type":"Feature","properties":{"PROVINSI":"Sulawesi Barat"},"geometry":{"type":"MultiPolygon","coordinates":[[[[118.8,-1.5],[119.3,-1.8],[119.5,-2.2],[119.5,-2.7],[119.2,-3.0],[118.8,-2.8],[118.5,-2.4],[118.5,-2.0],[118.8,-1.5]]]]}}
    ,{"type":"Feature","properties":{"PROVINSI":"Maluku"},"geometry":{"type":"MultiPolygon","coordinates":[[[[125.5,-3.0],[126.5,-3.2],[127.5,-3.5],[128.5,-3.8],[129.5,-4.0],[130.0,-4.5],[130.5,-5.0],[130.5,-6.0],[130.0,-7.0],[129.5,-7.5],[129.0,-7.2],[128.5,-6.8],[128.0,-6.5],[127.5,-6.0],[127.0,-5.5],[126.5,-5.0],[126.0,-4.5],[125.5,-4.0],[125.5,-3.5],[125.5,-3.0]]]]}}
    ,{"type":"Feature","properties":{"PROVINSI":"Maluku Utara"},"geometry":{"type":"MultiPolygon","coordinates":[[[[126.5,1.5],[127.0,2.0],[127.5,2.2],[128.0,2.0],[128.5,1.5],[128.2,1.0],[127.7,0.5],[127.2,0.3],[126.7,0.5],[126.5,1.0],[126.5,1.5]]]]}}
    ,{"type":"Feature","properties":{"PROVINSI":"Papua Barat"},"geometry":{"type":"MultiPolygon","coordinates":[[[[130.0,-1.0],[131.0,-1.2],[132.0,-1.5],[133.0,-2.0],[134.0,-2.5],[134.0,-3.0],[133.5,-3.5],[133.0,-4.0],[132.5,-4.2],[132.0,-4.0],[131.5,-3.5],[131.0,-3.0],[130.5,-2.5],[130.0,-2.0],[130.0,-1.5],[130.0,-1.0]]]]}}
    ,{"type":"Feature","properties":{"PROVINSI":"Papua"},"geometry":{"type":"MultiPolygon","coordinates":[[[[134.0,-2.5],[135.0,-2.8],[136.0,-3.0],[137.0,-3.5],[138.0,-4.0],[139.0,-4.5],[140.0,-5.0],[140.5,-6.0],[140.5,-7.0],[140.0,-8.0],[139.5,-8.5],[139.0,-8.2],[138.5,-7.8],[138.0,-7.5],[137.5,-7.0],[137.0,-6.5],[136.5,-6.0],[136.0,-5.5],[135.5,-5.0],[135.0,-4.5],[134.5,-4.0],[134.0,-3.5],[134.0,-3.0],[134.0,-2.5]]]]}}
    ,{"type":"Feature","properties":{"PROVINSI":"Papua Barat Daya"},"geometry":{"type":"MultiPolygon","coordinates":[[[[131.0,-1.5],[131.5,-1.8],[132.0,-2.2],[132.0,-2.8],[131.5,-3.2],[131.0,-3.0],[130.5,-2.5],[130.5,-2.0],[131.0,-1.5]]]]}}
    ,{"type":"Feature","properties":{"PROVINSI":"Papua Tengah"},"geometry":{"type":"MultiPolygon","coordinates":[[[[136.0,-3.5],[137.0,-3.8],[138.0,-4.2],[138.0,-5.0],[137.5,-5.5],[137.0,-5.2],[136.5,-4.8],[136.0,-4.3],[136.0,-3.5]]]]}}
    ,{"type":"Feature","properties":{"PROVINSI":"Papua Pegunungan"},"geometry":{"type":"MultiPolygon","coordinates":[[[[138.0,-4.0],[139.0,-4.0],[139.5,-4.5],[139.5,-5.2],[139.0,-5.5],[138.5,-5.2],[138.0,-4.8],[138.0,-4.0]]]]}}
    ,{"type":"Feature","properties":{"PROVINSI":"Papua Selatan"},"geometry":{"type":"MultiPolygon","coordinates":[[[[138.5,-6.5],[139.0,-6.8],[139.5,-7.2],[140.0,-7.8],[139.5,-8.2],[139.0,-8.0],[138.5,-7.5],[138.0,-7.0],[138.5,-6.5]]]]}}
  ]
}
